OBJECT_NAME,OBJECT_ID,EPOCH,MEAN_MOTION,ECCENTRICITY,INCLINATION,RA_OF_ASC_NODE,ARG_OF_PERICENTER,MEAN_ANOMALY,EPHEMERIS_TYPE,CLASSIFICATION_TYPE,NORAD_CAT_ID,ELEMENT_SET_NO,REV_AT_EPOCH,BSTAR,MEAN_MOTION_DOT,MEAN_MOTION_DDOT
EUTELSAT HOTBIRD 13F,2022-134A,2026-07-14T01:30:07.501248,1.00271968,.00018385,0.0577,284.3960,71.1640,331.9173,0,U,54048,999,1364,0,.81E-6,0
LDPE-2,2022-144A,2026-07-14T10:27:38.534688,1.00543530,.00023627,5.6767,63.4227,109.9482,144.5401,0,U,54219,999,1211,0,.21E-6,0
EUTELSAT HOTBIRD 13G,2022-146A,2026-07-13T20:22:14.711232,1.00268715,.00024185,0.0146,236.0241,309.3765,64.8996,0,U,54225,999,773,0,0,0
ZHONGXING-19,2022-148A,2026-07-14T14:11:31.777728,1.00269298,.00030173,0.0188,50.1320,89.4742,168.9212,0,U,54230,999,1365,0,0,0
GALAXY 31 (G-31),2022-153A,2026-07-14T12:50:32.665920,1.00270964,.00009631,0.0159,69.1234,50.6170,244.2713,0,U,54243,999,740,0,.6E-7,0
GALAXY 32 (G-32),2022-153B,2026-07-14T12:59:01.853088,1.00269851,.00014186,0.0107,43.5038,4.4759,348.1671,0,U,54244,999,1341,0,-.182E-5,0
EUTELSAT 10B,2022-157A,2026-07-14T13:27:51.589728,1.00268546,.00014794,0.0589,95.5481,14.5739,34.2479,0,U,54259,999,1330,0,.6E-6,0
GALAXY 35 (G-35),2022-170A,2026-07-14T12:58:24.413376,1.00270062,.00019302,0.0202,80.2306,36.6850,276.9639,0,U,54741,999,1316,0,-.17E-5,0
GALAXY 36 (G-36),2022-170B,2026-07-14T12:59:39.292800,1.00270300,.00023883,0.0041,124.2203,335.9041,298.1858,0,U,54742,999,1304,0,-.193E-5,0
METEOSAT-12 (MTG-I1),2022-170C,2026-07-14T08:16:59.913696,1.00267469,.0003775,0.7242,19.5742,82.1984,314.3752,0,U,54743,999,1325,0,-.16E-6,0
SHIJIAN-23 (SJ-23),2023-002A,2026-07-13T18:34:53.605056,1.00077393,.0003432,3.7833,77.9768,270.3095,352.1879,0,U,55131,999,1277,0,-.357E-5,0
APSTAR-6E,2023-005A,2026-07-13T19:14:00.858912,1.00265658,.00017168,0.0668,239.2682,340.0712,134.8519,0,U,55239,999,1895,0,-.323E-5,0
USA 342,2023-008A,2026-07-09T06:55:38.597952,1.00269378,.0000262,0.0052,352.2306,7.3445,55.4773,0,U,55263,999,1273,0,0,0
LDPE-3A,2023-008B,2026-07-14T14:05:00.250080,0.99150305,.00015086,2.4171,81.3243,78.4940,124.1220,0,U,55264,999,1208,0,-.304E-5,0
ELEKTRO-L 4,2023-016A,2026-07-13T17:30:21.693600,1.00270474,.00014983,0.1239,277.8920,254.5348,187.5611,0,U,55506,999,1260,0,-.63E-6,0
AMAZONAS NEXUS,2023-017A,2026-07-13T18:18:24.198912,1.00268939,.00043642,0.0356,42.7695,42.6416,59.8176,0,U,55508,999,731,0,-.287E-5,0
ZHONGXING-26,2023-023A,2026-07-14T00:19:23.765664,1.00267642,.00031723,0.0634,70.6483,27.0927,324.0938,0,U,55686,999,1249,0,-.36E-5,0
LUCH-5X (OLYMP-K 2),2023-031A,2026-07-13T17:10:49.441728,1.00271441,.0000896,0.0297,94.8289,172.1151,344.3269,0,U,55841,999,1220,0,.29E-6,0
GAOFEN-13 02,2023-036A,2026-07-14T14:07:17.184576,1.00274381,.0003714,1.0273,4.5010,336.2513,311.7428,0,U,55912,999,1236,0,-.226E-5,0
SES-18,2023-038A,2026-07-14T12:55:39.676224,1.00271593,.00008407,0.0546,256.8579,312.2596,174.1066,0,U,55970,999,1237,0,-.109E-5,0
SES-19,2023-038B,2026-07-14T12:46:33.049344,1.00268994,.00014835,0.0113,344.3455,129.3634,235.4140,0,U,55971,999,1236,0,.8E-6,0
INTELSAT 40E (IS-40E),2023-052A,2026-07-14T12:59:01.853088,1.00269041,.00022921,0.0267,72.7179,73.0834,250.3725,0,U,56174,999,1209,0,0,0
VIASAT-3 F1,2023-060A,2026-07-14T12:59:39.292800,1.00271312,.00009259,0.0149,24.5359,80.1805,293.6272,0,U,56370,999,1170,0,0,0
ARCTURUS,2023-060B,2026-07-14T15:16:34.991904,1.00594933,.00009516,2.8428,79.6002,131.8432,48.5684,0,U,56371,999,1173,0,-.343E-5,0
GS-1,2023-060C,2026-07-13T22:26:36.807072,1.00267117,.00034036,2.7922,79.5163,281.1231,357.1420,0,U,56372,999,780,0,-.23E-5,0
BEIDOU-3 G4,2023-066A,2026-07-14T15:47:39.761376,1.00272619,.00048892,0.4610,338.7424,187.4454,143.3051,0,U,56564,999,1166,0,-.288E-5,0
ARABSAT-7B (BADR-8),2023-075A,2026-07-14T11:49:49.380096,1.00271079,.0003416,0.0743,30.7036,358.3138,106.7877,0,U,56757,999,1139,0,.137E-5,0
NVS-01 (IRNSS-1J),2023-076A,2026-07-14T12:22:38.622720,1.00264974,.0003555,2.1032,243.1118,7.1226,357.2389,0,U,56759,999,1139,0,-.344E-5,0
NUSANTARA TIGA (SATRIA),2023-086A,2026-07-14T05:33:23.574240,1.00272319,.00026572,0.0345,12.3074,332.6277,176.5079,0,U,57045,999,1003,0,-.241E-5,0
H2SAT (HEINRICH HERTZ),2023-093A,2026-07-14T13:25:14.340864,1.00270080,.00003876,0.0223,98.3589,50.7004,345.3551,0,U,57213,999,1119,0,-.6E-7,0
SYRACUSE 4B,2023-093B,2026-07-13T13:26:01.019328,1.00269537,.0000448,0.0280,56.3015,204.3313,225.8578,0,U,57214,999,723,0,0,0
